NORAD_CAT_ID,OBJECT_NAME,OBJECT_TYPE,EPOCH,MEAN_MOTION,ECCENTRICITY,INCLINATION,RA_OF_ASC_NODE,ARG_OF_PERICENTER,MEAN_ANOMALY,BSTAR,MEAN_MOTION_DOT,MEAN_MOTION_DDOT,TLE_LINE0,TLE_LINE1,TLE_LINE2,SEMIMAJOR_AXIS,PERIOD,APOGEE,PERIGEE,DECAYED
52370.0,STARLINK-3827,PAYLOAD,2023-01-20 22:29:39,15.08843938,0.0001179,53.215,283.6291,94.5167,265.596,0.0010942999999999,0.00017173,0.0,0 STARLINK-3827,1 52370U 22045AR  23020.93725885  .00017173  00000-0  10943-2 0  9992,2 52370  53.2150 283.6291 0001179  94.5167 265.5960 15.08843938 43252,6917.868,95.437,540.549,538.918,0.0
52370.0,STARLINK-3827,PAYLOAD,2023-01-22 17:25:03,15.08868269,0.0001105999999999,53.2154,275.5996,122.5901,237.5198,0.00094743,0.00014834,0.0,0 STARLINK-3827,1 52370U 22045AR  23022.72573568  .00014834  00000-0  94743-3 0  9992,2 52370  53.2154 275.5996 0001106 122.5901 237.5198 15.08868269 43522,6917.794,95.436,540.424,538.894,0.0
52370.0,STARLINK-3827,PAYLOAD,2023-01-23 01:21:59,15.08836804,9.54e-05,53.2156,274.113,110.6025,249.5069,0.00023062,3.384e-05,0.0,0 STARLINK-3827,1 52370U 22045AR  23023.05693675  .00003384  00000-0  23062-3 0  9995,2 52370  53.2156 274.1130 0000954 110.6025 249.5069 15.08836804 43579,6917.89,95.438,540.415,539.095,0.0
52370.0,STARLINK-3827,PAYLOAD,2023-01-24 02:48:09,15.08855952,0.0001046,53.2147,269.3542,109.6571,250.4534,0.00071137,0.00011057,0.0,0 STARLINK-3827,1 52370U 22045AR  23024.11677398  .00011057  00000-0  71137-3 0  9999,2 52370  53.2147 269.3542 0001046 109.6571 250.4534 15.08855952 43730,6917.831999999999,95.437,540.42,538.9730000000001,0.0
52370.0,STARLINK-3827,PAYLOAD,2023-01-24 20:17:23,15.08842759,0.000132,53.2143,266.0799,119.0572,241.0553,0.0003578,5.411e-05,0.0,0 STARLINK-3827,1 52370U 22045AR  23024.84541462  .00005411  00000-0  35780-3 0  9992,2 52370  53.2143 266.0799 0001320 119.0572 241.0553 15.08842759 43845,6917.871999999999,95.437,540.65,538.8240000000001,0.0
52370.0,STARLINK-3827,PAYLOAD,2023-01-25 09:00:29,15.08837829,9.71e-05,53.2141,263.7048,96.9932,263.1171,3.8825e-05,3.3e-06,0.0,0 STARLINK-3827,1 52370U 22045AR  23025.37533737  .00000330  00000-0  38825-4 0  9996,2 52370  53.2141 263.7048 0000971  96.9932 263.1171 15.08837829 43920,6917.887,95.438,540.424,539.08,0.0
52370.0,STARLINK-3827,PAYLOAD,2023-01-25 20:08:11,15.08836885,9.6e-05,53.2142,261.6231,99.1982,260.9119,-2.4259e-05,-6.74e-06,0.0,0 STARLINK-3827,1 52370U 22045AR  23025.83901987 -.00000674  00000-0 -24259-4 0  9992,2 52370  53.2142 261.6231 0000960  99.1982 260.9119 15.08836885 43995,6917.89,95.438,540.419,539.091,0.0
52370.0,STARLINK-3827,PAYLOAD,2023-01-26 00:54:20,15.08842924,8.99e-05,53.2142,260.7292,108.9018,251.2071,3.0008e-05,1.9e-06,0.0,0 STARLINK-3827,1 52370U 22045AR  23026.03773694  .00000190  00000-0  30008-4 0  9997,2 52370  53.2142 260.7292 0000899 108.9018 251.2071 15.08842924 44028,6917.871,95.437,540.3580000000001,539.115,0.0
52370.0,STARLINK-3827,PAYLOAD,2023-01-26 21:34:21,15.0884641,9.31e-05,53.2132,256.8647,94.3008,265.8091,0.00027137,4.034e-05,0.0,0 STARLINK-3827,1 52370U 22045AR  23026.89885877  .00004034  00000-0  27137-3 0  9997,2 52370  53.2132 256.8647 0000931  94.3008 265.8091 15.08846410 44152,6917.861,95.437,540.37,539.082,0.0
52370.0,STARLINK-3827,PAYLOAD,2023-01-27 18:14:22,15.08840231,9.57e-05,53.2133,252.9993,85.8909,274.2192,0.00019157,2.762e-05,0.0,0 STARLINK-3827,1 52370U 22045AR  23027.75998199  .00002762  00000-0  19157-3 0  9994,2 52370  53.2133 252.9993 0000957  85.8909 274.2192 15.08840231 44282,6917.88,95.438,540.4069999999999,539.0830000000001,0.0
52370.0,STARLINK-3827,PAYLOAD,2023-01-27 21:25:08,15.08844458,9.69e-05,53.2136,252.4047,85.6065,274.5038,0.00014099,1.957e-05,0.0,0 STARLINK-3827,1 52370U 22045AR  23027.89245979  .00001957  00000-0  14099-3 0  9995,2 52370  53.2136 252.4047 0000969  85.6065 274.5038 15.08844458 44304,6917.866999999999,95.437,540.4019999999999,539.061,0.0
52370.0,STARLINK-3827,PAYLOAD,2023-01-28 00:35:54,15.08843093,9.5e-05,53.2135,251.809,89.9057,270.2044,0.00013415,1.848e-05,0.0,0 STARLINK-3827,1 52370U 22045AR  23028.02493989  .00001848  00000-0  13415-3 0  9997,2 52370  53.2135 251.8090 0000950  89.9057 270.2044 15.08843093 44328,6917.871,95.437,540.393,539.079,0.0
52370.0,STARLINK-3827,PAYLOAD,2023-01-28 21:15:56,15.08793965,0.0001308,53.2141,247.9436,84.7539,275.3602,0.00074284,0.00011539,0.0,0 STARLINK-3827,1 52370U 22045AR  23028.88607430  .00011539  00000-0  74284-3 0  9998,2 52370  53.2141 247.9436 0001308  84.7539 275.3602 15.08793965 44453,6918.021,95.44,540.791,538.981,0.0
52370.0,STARLINK-3827,PAYLOAD,2023-01-29 00:26:41,15.08845228,0.0001121,53.2151,247.348,99.6896,260.4223,2.2333e-05,6.8e-07,0.0,0 STARLINK-3827,1 52370U 22045AR  23029.01853821  .00000068  00000-0  22333-4 0  9995,2 52370  53.2151 247.3480 0001121  99.6896 260.4223 15.08845228 44477,6917.864,95.437,540.505,538.954,0.0
52370.0,STARLINK-3827,PAYLOAD,2023-01-29 14:45:10,15.08836714,0.0001129,53.2151,244.6713,81.8346,278.2775,5.0177e-05,5.11e-06,0.0,0 STARLINK-3827,1 52370U 22045AR  23029.61470339  .00000511  00000-0  50177-4 0  9990,2 52370  53.2151 244.6713 0001129  81.8346 278.2775 15.08836714 44566,6917.89,95.438,540.536,538.974,0.0
52370.0,STARLINK-3827,PAYLOAD,2023-01-29 21:06:42,15.08840358,0.0001127,53.215,243.4818,81.7422,278.3698,7.2566e-05,8.67e-06,0.0,0 STARLINK-3827,1 52370U 22045AR  23029.87966031  .00000867  00000-0  72566-4 0  9997,2 52370  53.2150 243.4818 0001127  81.7422 278.3698 15.08840358 44609,6917.879,95.438,540.524,538.965,0.0
52370.0,STARLINK-3827,PAYLOAD,2023-01-30 00:17:28,15.08840659,0.0001149,53.215,242.887,81.9225,278.1898,7.3176e-05,8.77e-06,0.0,0 STARLINK-3827,1 52370U 22045AR  23030.01213998  .00000877  00000-0  73176-4 0  9991,2 52370  53.2150 242.8870 0001149  81.9225 278.1898 15.08840659 44623,6917.878,95.438,540.538,538.949,0.0
52370.0,STARLINK-3827,PAYLOAD,2023-01-30 20:57:29,15.08838726,0.0001147,53.2153,239.0209,79.3958,280.7163,4.0324e-05,3.54e-06,0.0,0 STARLINK-3827,1 52370U 22045AR  23030.87326275  .00000354  00000-0  40324-4 0  9997,2 52370  53.2153 239.0209 0001147  79.3958 280.7163 15.08838726 44752,6917.884,95.438,540.543,538.956,0.0
52370.0,STARLINK-3827,PAYLOAD,2023-01-30 22:32:53,15.0883902,0.0001152,53.2153,238.7235,79.1107,281.0015,4.0566e-05,3.58e-06,0.0,0 STARLINK-3827,1 52370U 22045AR  23030.93950251  .00000358  00000-0  40566-4 0  9993,2 52370  53.2153 238.7235 0001152  79.1107 281.0015 15.08839020 44766,6917.883,95.438,540.545,538.951,0.0
52370.0,STARLINK-3827,PAYLOAD,2023-01-31 12:51:21,15.08834931,0.0001177,53.215,236.0474,83.2326,276.88,4.3333e-05,4.02e-06,0.0,0 STARLINK-3827,1 52370U 22045AR  23031.53566614  .00000402  00000-0  43333-4 0  9991,2 52370  53.2150 236.0474 0001177  83.2326 276.8800 15.08834931 44855,6917.896,95.438,540.575,538.947,0.0
52370.0,STARLINK-3827,PAYLOAD,2023-01-31 23:59:03,15.08839689,0.0001214,53.2147,233.9659,84.3732,275.7398,3.8266e-05,3.21e-06,0.0,0 STARLINK-3827,1 52370U 22045AR  23031.99934365  .00000321  00000-0  38266-4 0  9992,2 52370  53.2147 233.9659 0001214  84.3732 275.7398 15.08839689 44920,6917.881,95.438,540.586,538.907,0.0
52370.0,STARLINK-3827,PAYLOAD,2023-02-01 23:49:50,15.08838901,0.0001318,53.2145,229.5052,86.7473,273.367,7.5764e-05,9.18e-06,0.0,0 STARLINK-3827,1 52370U 22045AR  23032.99294364  .00000918  00000-0  75764-4 0  9997,2 52370  53.2145 229.5052 0001318  86.7473 273.3670 15.08838901 45079,6917.884,95.438,540.661,538.837,0.0
52370.0,STARLINK-3827,PAYLOAD,2023-02-02 22:05:14,15.08841359,0.0001246,53.2153,225.3416,78.8049,281.3083,4.4983e-05,4.28e-06,0.0,0 STARLINK-3827,1 52370U 22045AR  23033.92030289  .00000428  00000-0  44983-4 0  9990,2 52370  53.2153 225.3416 0001246  78.8049 281.3083 15.08841359 45211,6917.876,95.437,540.603,538.879,0.0
52370.0,STARLINK-3827,PAYLOAD,2023-02-03 12:23:42,15.08841218,0.0001295,53.214,222.665,90.1764,269.9376,5.5124e-05,5.9e-06,0.0,0 STARLINK-3827,1 52370U 22045AR  23034.51646320  .00000590  00000-0  55124-4 0  9994,2 52370  53.2140 222.6650 0001295  90.1764 269.9376 15.08841218 45303,6917.877,95.437,540.638,538.846,0.0
52370.0,STARLINK-3827,PAYLOAD,2023-02-04 05:52:56,15.08842076,0.0001257,53.2143,219.3949,85.0841,275.0295,6.672e-05,7.74e-06,0.0,0 STARLINK-3827,1 52370U 22045AR  23035.24510162  .00000774  00000-0  66720-4 0  9997,2 52370  53.2143 219.3949 0001257  85.0841 275.0295 15.08842076 45410,6917.874,95.437,540.609,538.869,0.0
52370.0,STARLINK-3827,PAYLOAD,2023-02-04 12:14:29,15.08840981,0.0001316,53.2143,218.2056,84.0876,276.0266,5.418e-05,5.74e-06,0.0,0 STARLINK-3827,1 52370U 22045AR  23035.51006261  .00000574  00000-0  54180-4 0  9992,2 52370  53.2143 218.2056 0001316  84.0876 276.0266 15.08840981 45456,6917.877,95.437,540.653,538.832,0.0
52370.0,STARLINK-3827,PAYLOAD,2023-02-04 21:46:48,15.08842098,0.0001217,53.2148,216.4203,93.1166,266.9965,7.5012e-05,9.06e-06,0.0,0 STARLINK-3827,1 52370U 22045AR  23035.90750008  .00000906  00000-0  75012-4 0  9996,2 52370  53.2148 216.4203 0001217  93.1166 266.9965 15.08842098 45510,6917.874,95.437,540.581,538.897,0.0
52370.0,STARLINK-3827,PAYLOAD,2023-02-05 12:05:16,15.08835314,0.0001192,53.2146,213.7438,96.6189,263.4939,-3.1415e-06,-3.38e-06,0.0,0 STARLINK-3827,1 52370U 22045AR  23036.50366786 -.00000338  00000-0 -31415-5 0  9990,2 52370  53.2146 213.7438 0001192  96.6189 263.4939 15.08835314 45609,6917.895,95.438,540.584,538.935,0.0
52370.0,STARLINK-3827,PAYLOAD,2023-02-05 21:37:35,15.088376,0.0001113,53.2148,211.96,93.3628,266.7492,1.6681e-05,-2.2e-07,0.0,0 STARLINK-3827,1 52370U 22045AR  23036.90110660 -.00000022  00000-0  16681-4 0  9998,2 52370  53.2148 211.9600 0001113  93.3628 266.7492 15.08837600 45663,6917.888,95.438,540.523,538.983,0.0
52370.0,STARLINK-3827,PAYLOAD,2023-02-06 03:59:09,15.08827057,0.0001124,53.2148,210.7701,94.8214,265.2906,-4.047e-05,-9.32e-06,0.0,0 STARLINK-3827,1 52370U 22045AR  23037.16607661 -.00000932  00000-0 -40470-4 0  9993,2 52370  53.2148 210.7701 0001124  94.8214 265.2906 15.08827057 45705,6917.92,95.438,540.563,539.007,0.0
